{"type": "FeatureCollection", "features": [ {"type": "Feature", "properties": {"norad_id": 36012, "name": "IRIDIUM 33 DEB", "group": "iridium-33-debris", "lat": 73.5490348208499, "lon": -46.32903771188591, "alt_km": 937.9032156109533, "timestamp": "2025-12-27T16:33:30.607719+00:00", "meta": {"OBJECT_NAME": "IRIDIUM 33 DEB", "OBJECT_ID": "1997-051UT", "EPOCH": "2025-12-23T02:12:50.688576", "MEAN_MOTION": 14.19255751, "ECCENTRICITY": 0.02111422, "INCLINATION": 86.4409, "RA_OF_ASC_NODE": 303.3574, "ARG_OF_PERICENTER": 229.8799, "MEAN_ANOMALY": 128.3722, "EPHEMERIS_TYPE": 0, "CLASSIFICATION_TYPE": "U", "NORAD_CAT_ID": 36012, "ELEMENT_SET_NO": 999, "REV_AT_EPOCH": 65631, "BSTAR": 0.004288895, "MEAN_MOTION_DOT": 0.00011258, "MEAN_MOTION_DDOT": 0}, "tle": {"line1": "1 36012U 97051UT  25357.09225334  .00011258  00000+0  42889-2 0  9993", "line2": "2 36012  86.4409 303.3574 0211142 229.8799 128.3722 14.19255751656313"}}, "geometry": {"type": "Point", "coordinates": [-46.32903771188591, 73.5490348208499]}}, {"type": "Feature", "properties": {"norad_id": 36028, "name": "IRIDIUM 33 DEB", "group": "iridium-33-debris", "lat": -53.52496193230763, "lon": -65.32507201899165, "alt_km": 579.2308928397324, "timestamp": "2025-12-27T16:33:30.607730+00:00", "meta": {"OBJECT_NAME": "IRIDIUM 33 DEB", "OBJECT_ID": "1997-051VK", "EPOCH": "2025-12-24T13:20:34.772064", "MEAN_MOTION": 14.95853711, "ECCENTRICITY": 0.001968, "INCLINATION": 86.323, "RA_OF_ASC_NODE": 301.1398, "ARG_OF_PERICENTER": 16.6795, "MEAN_ANOMALY": 343.5078, "EPHEMERIS_TYPE": 0, "CLASSIFICATION_TYPE": "U", "NORAD_CAT_ID": 36028, "ELEMENT_SET_NO": 999, "REV_AT_EPOCH": 87301, "BSTAR": 0.0024246454, "MEAN_MOTION_DOT": 0.00027287, "MEAN_MOTION_DDOT": 0}, "tle": {"line1": "1 36028U 97051VK  25358.55595801  .00027287  00000+0  24246-2 0  9997", "line2": "2 36028  86.3230 301.1398 0019680  16.6795 343.5078 14.95853711873019"}}, "geometry": {"type": "Point", "coordinates": [-65.32507201899165, -53.52496193230763]}}, {"type": "Feature", "properties": {"norad_id": 36080, "name": "IRIDIUM 33 DEB", "group": "iridium-33-debris", "lat": 50.271855718777694, "lon": 5.916592138480026, "alt_km": 724.8551041415685, "timestamp": "2025-12-27T16:33:30.607740+00:00", "meta": {"OBJECT_NAME": "IRIDIUM 33 DEB", "OBJECT_ID": "1997-051VM", "EPOCH": "2025-12-19T07:27:26.572608", "MEAN_MOTION": 14.4663152, "ECCENTRICITY": 0.0018893, "INCLINATION": 86.3193, "RA_OF_ASC_NODE": 5.1242, "ARG_OF_PERICENTER": 135.9522, "MEAN_ANOMALY": 224.319, "EPHEMERIS_TYPE": 0, "CLASSIFICATION_TYPE": "U", "NORAD_CAT_ID": 36080, "ELEMENT_SET_NO": 999, "REV_AT_EPOCH": 47509, "BSTAR": 0.00042458, "MEAN_MOTION_DOT": 1.555e-05, "MEAN_MOTION_DDOT": 0}, "tle": {"line1": "1 36080U 97051VM  25353.31072422  .00001555  00000+0  42458-3 0  9999", "line2": "2 36080  86.3193   5.1242 0018893 135.9522 224.3190 14.46631520475097"}}, "geometry": {"type": "Point", "coordinates": [5.916592138480026, 50.271855718777694]}}, {"type": "Feature", "properties": {"norad_id": 36083, "name": "IRIDIUM 33 DEB", "group": "iridium-33-debris", "lat": -39.84810529200129, "lon": 24.655908693402537, "alt_km": 770.2835457768433, "timestamp": "2025-12-27T16:33:30.607750+00:00", "meta": {"OBJECT_NAME": "IRIDIUM 33 DEB", "OBJECT_ID": "1997-051VQ", "EPOCH": "2025-12-24T08:52:23.766528", "MEAN_MOTION": 14.43245731, "ECCENTRICITY": 0.00265084, "INCLINATION": 86.3425, "RA_OF_ASC_NODE": 29.1454, "ARG_OF_PERICENTER": 183.5397, "MEAN_ANOMALY": 176.562, "EPHEMERIS_TYPE": 0, "CLASSIFICATION_TYPE": "U", "NORAD_CAT_ID": 36083, "ELEMENT_SET_NO": 999, "REV_AT_EPOCH": 85617, "BSTAR": 0.00051614904, "MEAN_MOTION_DOT": 1.763e-05, "MEAN_MOTION_DDOT": 0}, "tle": {"line1": "1 36083U 97051VQ  25358.36971952  .00001763  00000+0  51615-3 0  9994", "line2": "2 36083  86.3425  29.1454 0026508 183.5397 176.5620 14.43245731856170"}}, "geometry": {"type": "Point", "coordinates": [24.655908693402537, -39.84810529200129]}}, {"type": "Feature", "properties": {"norad_id": 36390, "name": "IRIDIUM 33 DEB", "group": "iridium-33-debris", "lat": -24.228685705327567, "lon": -69.13144186850263, "alt_km": 670.9777843504717, "timestamp": "2025-12-27T16:33:30.607764+00:00", "meta": {"OBJECT_NAME": "IRIDIUM 33 DEB", "OBJECT_ID": "1997-051VU", "EPOCH": "2025-12-25T02:44:48.274368", "MEAN_MOTION": 14.737665, "ECCENTRICITY": 0.00323952, "INCLINATION": 86.292, "RA_OF_ASC_NODE": 293.7212, "ARG_OF_PERICENTER": 120.9212, "MEAN_ANOMALY": 239.5197, "EPHEMERIS_TYPE": 0, "CLASSIFICATION_TYPE": "U", "NORAD_CAT_ID": 36390, "ELEMENT_SET_NO": 999, "REV_AT_EPOCH": 66444, "BSTAR": 0.0011373598, "MEAN_MOTION_DOT": 7.522e-05, "MEAN_MOTION_DDOT": 0}, "tle": {"line1": "1 36390U 97051VU  25359.11444762  .00007522  00000+0  11374-2 0  9999", "line2": "2 36390  86.2920 293.7212 0032395 120.9212 239.5197 14.73766500664444"}}, "geometry": {"type": "Point", "coordinates": [-69.13144186850263, -24.228685705327567]}}, {"type": "Feature", "properties": {"norad_id": 36483, "name": "IRIDIUM 33 DEB", "group": "iridium-33-debris", "lat": -82.53226150021597, "lon": -105.01653013484419, "alt_km": 754.6992779445918, "timestamp": "2025-12-27T16:33:30.607775+00:00", "meta": {"OBJECT_NAME": "IRIDIUM 33 DEB", "OBJECT_ID": "1997-051VZ", "EPOCH": "2025-12-26T21:04:24.415104", "MEAN_MOTION": 14.45858333, "ECCENTRICITY": 0.0011309, "INCLINATION": 86.3782, "RA_OF_ASC_NODE": 46.4363, "ARG_OF_PERICENTER": 87.0971, "MEAN_ANOMALY": 273.1526, "EPHEMERIS_TYPE": 0, "CLASSIFICATION_TYPE": "U", "NORAD_CAT_ID": 36483, "ELEMENT_SET_NO": 999, "REV_AT_EPOCH": 65350, "BSTAR": 0.00053076, "MEAN_MOTION_DOT": 1.905e-05, "MEAN_MOTION_DDOT": 0}, "tle": {"line1": "1 36483U 97051VZ  25360.87806036  .00001905  00000+0  53076-3 0  9998", "line2": "2 36483  86.3782  46.4363 0011309  87.0971 273.1526 14.45858333653501"}}, "geometry": {"type": "Point", "coordinates": [-105.01653013484419, -82.53226150021597]}}, {"type": "Feature", "properties": {"norad_id": 36490, "name": "IRIDIUM 33 DEB", "group": "iridium-33-debris", "lat": -0.14369811131408683, "lon": 3.709184355594639, "alt_km": 641.3297684234185, "timestamp": "2025-12-27T16:33:30.607785+00:00", "meta": {"OBJECT_NAME": "IRIDIUM 33 DEB", "OBJECT_ID": "1997-051WG", "EPOCH": "2025-12-26T17:47:15.593280", "MEAN_MOTION": 14.76486915, "ECCENTRICITY": 0.0004844, "INCLINATION": 86.3658, "RA_OF_ASC_NODE": 4.1463, "ARG_OF_PERICENTER": 53.891, "MEAN_ANOMALY": 306.2757, "EPHEMERIS_TYPE": 0, "CLASSIFICATION_TYPE": "U", "NORAD_CAT_ID": 36490, "ELEMENT_SET_NO": 999, "REV_AT_EPOCH": 86691, "BSTAR": 0.001756946, "MEAN_MOTION_DOT": 0.00012267, "MEAN_MOTION_DDOT": 0}, "tle": {"line1": "1 36490U 97051WG  25360.74115270  .00012267  00000+0  17569-2 0  9994", "line2": "2 36490  86.3658   4.1463 0004844  53.8910 306.2757 14.76486915866915"}}, "geometry": {"type": "Point", "coordinates": [3.709184355594639, -0.14369811131408683]}}, {"type": "Feature", "properties": {"norad_id": 36493, "name": "IRIDIUM 33 DEB", "group": "iridium-33-debris", "lat": 50.32829530550336, "lon": 9.44238633763027, "alt_km": 672.1831468055125, "timestamp": "2025-12-27T16:33:30.607795+00:00", "meta": {"OBJECT_NAME": "IRIDIUM 33 DEB", "OBJECT_ID": "1997-051WK", "EPOCH": "2025-12-23T07:26:33.103968", "MEAN_MOTION": 14.65359392, "ECCENTRICITY": 0.00090124, "INCLINATION": 86.3569, "RA_OF_ASC_NODE": 6.9826, "ARG_OF_PERICENTER": 326.7527, "MEAN_ANOMALY": 33.3119, "EPHEMERIS_TYPE": 0, "CLASSIFICATION_TYPE": "U", "NORAD_CAT_ID": 36493, "ELEMENT_SET_NO": 999, "REV_AT_EPOCH": 74673, "BSTAR": 0.0013164613, "MEAN_MOTION_DOT": 7.136e-05, "MEAN_MOTION_DDOT": 0}, "tle": {"line1": "1 36493U 97051WK  25357.31010537  .00007136  00000+0  13165-2 0  9993", "line2": "2 36493  86.3569   6.9826 0009012 326.7527  33.3119 14.65359392746733"}}, "geometry": {"type": "Point", "coordinates": [9.44238633763027, 50.32829530550336]}}, {"type": "Feature", "properties": {"norad_id": 37548, "name": "IRIDIUM 33 DEB", "group": "iridium-33-debris", "lat": -26.864745872287067, "lon": -141.28343775745392, "alt_km": 720.0365955581847, "timestamp": "2025-12-27T16:33:30.607805+00:00", "meta": {"OBJECT_NAME": "IRIDIUM 33 DEB", "OBJECT_ID": "1997-051XH", "EPOCH": "2025-12-15T20:39:30.861504", "MEAN_MOTION": 14.51326297, "ECCENTRICITY": 0.00258157, "INCLINATION": 86.3522, "RA_OF_ASC_NODE": 42.0105, "ARG_OF_PERICENTER": 178.4192, "MEAN_ANOMALY": 181.71, "EPHEMERIS_TYPE": 0, "CLASSIFICATION_TYPE": "U", "NORAD_CAT_ID": 37548, "ELEMENT_SET_NO": 999, "REV_AT_EPOCH": 65577, "BSTAR": 0.00067405053, "MEAN_MOTION_DOT": 2.715e-05, "MEAN_MOTION_DDOT": 0}, "tle": {"line1": "1 37548U 97051XH  25349.86077386  .00002715  00000+0  67405-3 0  9996", "line2": "2 37548  86.3522  42.0105 0025815 178.4192 181.7100 14.51326297655778"}}, "geometry": {"type": "Point", "coordinates": [-141.28343775745392, -26.864745872287067]}}, {"type": "Feature", "properties": {"norad_id": 37550, "name": "IRIDIUM 33 DEB", "group": "iridium-33-debris", "lat": 19.760037560619764, "lon": 18.551543956107142, "alt_km": 667.3972480970351, "timestamp": "2025-12-27T16:33:30.607816+00:00", "meta": {"OBJECT_NAME": "IRIDIUM 33 DEB", "OBJECT_ID": "1997-051XK", "EPOCH": "2025-12-26T07:44:10.741056", "MEAN_MOTION": 14.67388956, "ECCENTRICITY": 0.0005507, "INCLINATION": 86.3774, "RA_OF_ASC_NODE": 17.8536, "ARG_OF_PERICENTER": 80.7353, "MEAN_ANOMALY": 279.4484, "EPHEMERIS_TYPE": 0, "CLASSIFICATION_TYPE": "U", "NORAD_CAT_ID": 37550, "ELEMENT_SET_NO": 999, "REV_AT_EPOCH": 86532, "BSTAR": 0.001303, "MEAN_MOTION_DOT": 7.388e-05, "MEAN_MOTION_DDOT": 0}, "tle": {"line1": "1 37550U 97051XK  25360.32234654  .00007388  00000+0  13030-2 0  9991", "line2": "2 37550  86.3774  17.8536 0005507  80.7353 279.4484 14.67388956865329"}}, "geometry": {"type": "Point", "coordinates": [18.551543956107142, 19.760037560619764]}}]}